ID,UUID, LocationTitle,AddressLine1,AddressLine2,Town,StateOrProvince,Postcode,Country,Latitude,Longitude,Distance,DistanceUnit,Addr_ContactTelephone1,Addr_ContactTelephone2,Addr_ContactEmail,Addr_AccessComments,Addr_GeneralComments,Addr_RelatedURL,ConnectionType,ChargerType,UsageType,NumberOfPoints,GeneralComments,DateLastConfirmed,StatusType,DateLastStatusUpdate,DateCreated
173970,66115821-7A60-4291-923E-4D11912AAD7E,EVBox fastcharger,Kallenbroekerweg,,Barneveld,Gelderland,3771DC,Netherlands,52.14141141493823,5.567445005043965,,0,,,,,,,CCS (Type 2); CHAdeMO; Type 2 (Socket Only);,,Public,2,,,Operational,3/9/2021 10:32:00 PM,3/8/2021 7:25:00 PM
173931,69E160CA-B1AB-460A-B8FF-96A71CEF1DDE,AVIA de Poel - Goes,77A Anthony Fokkerstraat,,Goes,Zeeland,4462ES,Netherlands,51.49369149242824,3.881460649445785,,0,,,,At Avia gas station and on the side of the wash box. Two 220v connectors,,,Unknown;,,Public,1,,,Operational,3/8/2021 10:45:00 AM,3/7/2021 6:44:00 PM
173893,E564B27E-9773-48D9-A9D7-0920F14988CD,Ab en van de Schelde Nissan dealer,Nikolaus Ottostraat,,Zwolle,Overijssel,8013NG,Netherlands,52.49450730013044,6.122473470318141,,0,,,,no gate,,,CHAdeMO; CCS (Type 2); Type 2 (Socket Only);,,Public - Membership Required,1,,,Operational,3/5/2021 6:01:00 PM,3/5/2021 10:15:00 AM
173892,CBED4444-AFF9-4763-87F8-DE4235F01242,Ab en van de Schelde Nissan dealer,Nikolaus Ottostraat,,Zwolle,Overijssel,8013NG,Netherlands,52.49450730013044,6.122473470318141,,0,,,,no gate,,,CHAdeMO; CCS (Type 2); Type 2 (Socket Only);,,Public - Membership Required,1,,,Operational,3/7/2021 8:26:00 PM,3/5/2021 10:13:00 AM
171439,E7455289-B18B-4B50-B043-881CF753000C,Van Musschenbroekstraat,Van Musschenbroekstraat,,The Hague,South Holland,2522AP,Netherlands,52.065035901097986,4.329579515997125,,0,0884848517,,,,,,Type 2 (Socket Only);,,Public,1,,,Operational,1/2/2021 7:35:00 PM,1/2/2021 1:24:00 AM
171094,95A3C2D7-291C-45CB-B23A-E85D0EEA3C9E,Meerkerk Supercharger,Energieweg 116 Meerkerk,,Utrecht,,4231 DJ,Netherlands,51.899517,4.982968,,0,,,,,,,Tesla Supercharger;,,Public - Membership Required,16,Charging16 Superchargers, available 24/7, up to 250kW,,Operational,12/20/2020 6:32:00 AM,12/20/2020 6:32:00 AM
171086,EBF908D8-F21C-49F2-9369-E1C65891FB5B,Carlton President Hotel,25 Floraweg,,Utrecht,,3542DX,Netherlands,52.12049127,5.03869943,,0,+31 30 241 41 82,,,,,,Tesla (Model S/X);,,Public - Membership Required,4,4 Tesla Connectors, up to 11kW.Available for customers. Please call ahead.,,Operational,12/20/2020 6:30:00 AM,12/20/2020 6:30:00 AM
171081,63E6DE4F-A323-46D8-9EE9-763F59066DBB,Waterfront,Waterfront,,Eindhoven,North Brabant,5658NN,Netherlands,51.439800399682724,5.40194946392603,,0,,,,,,,Type 2 (Socket Only);,,Public,1,,,Operational,12/20/2020 11:07:00 AM,12/19/2020 11:37:00 AM
171080,23C8158A-D54B-4B92-AC02-B2C9346F72AD,4 charge points Waterrijk,Waterlinie,Strijp,Eindhoven,North Brabant,5658ND,Netherlands,51.435549864472904,5.395050952476026,,0,,,,,,,Type 2 (Socket Only);,,Public,4,,,Operational,12/20/2020 3:53:00 PM,12/19/2020 11:14:00 AM
170946,6C30E899-DAAE-43EE-B55A-8A3B6494ADAC,Rosariumstraat,Rosariumstraat,,Zwolle,,8043PX,Netherlands,52.525242027120925,6.070279269660773,,0,,,,,,,Type 2 (Socket Only);,,Public,2,,,Operational,12/13/2020 6:15:00 PM,12/13/2020 7:44:00 AM
170757,29975DB9-0331-46B4-AE92-5646DB5FCC02,Willibrordus Business Center,Kennemerstraatweg 464,,Heiloo,NH,1851 NG,Netherlands,52.59565598875008,4.709053203057465,,0,,,,,,,Type 2 (Socket Only);,,Public,10,,,Operational,12/8/2020 6:30:00 PM,12/8/2020 12:09:00 PM
170696,91DC78ED-334B-4A46-AC11-09EFE0AF55B0,Dcb energy hub Schiphol,Changing Lane 10,,Hoofddorp,North-Holland,,Netherlands,52.271121182830655,4.69533813882299,,0,,,,,,,CHAdeMO; CCS (Type 2); CCS (Type 2); CHAdeMO;,,Public - Membership Required,10,,,Operational,12/6/2020 5:40:00 PM,12/5/2020 2:15:00 PM
170569,9313E327-F050-449B-A8A0-5FADB5BC370B,Flitsmeister,Landjuweel 24,,Veenendaal,Utrecht,3905PE,Netherlands,52.039305597053925,5.550275138520533,,0,,,,The charging pole on the left side when entering parking is restricted to employees only and will not operate on public charging cards.,,,Type 2 (Socket Only);,,Private - Restricted Access,2,,,Operational,12/2/2020 4:01:00 PM,12/1/2020 3:25:00 PM
170568,D485AFBC-D22C-4855-A65C-047B24CFCB74,24 Landjuweel,24 Landjuweel,,Veenendaal,Utrecht,3905PG,Netherlands,52.03925546403201,5.550582310882078,,0,,,,,,,Type 2 (Socket Only);,,Private - For Staff, Visitors or Customers,2,,,Operational,12/2/2020 4:00:00 PM,12/1/2020 3:22:00 PM
170229,4DE679CF-EC96-40CF-835E-5A954E5D106D,Zuidbroek,Burgemeester Otmaweg 2,,Zuidbroek,,9636 EM,Netherlands,53.169567,6.852949,,0,,,,,,,Tesla Supercharger;,,Public - Membership Required,8,Charging8 superchargers, available 24/7, up to 250kW,,Operational,11/21/2020 6:56:00 AM,11/21/2020 6:56:00 AM
169959,D0C19B71-39F6-4FA4-B924-825D0EDF0165,Parking banjaardstrand,Parking banjaardstrand,,Noord-Beveland,Zeeland,4493RA,Netherlands,51.590606301790416,3.6629008999134385,,0,,,,,,,Type 2 (Socket Only);,,Public - Membership Required,8,,,Operational,11/15/2020 10:41:00 AM,11/15/2020 3:23:00 AM
169654,35EAEABA-CBE1-427A-9A66-658BF15884ED,Graaf Adolfstraat,Graaf Adolfstraat,Nieuwerbrug aan den Rijn,,Zuid-Holland,2415AL,Netherlands,52.077645597481876,4.820435944502833,,0,,,,,,,Type 2 (Socket Only);,,Public - Membership Required,2,,,Operational,10/29/2020 7:32:00 AM,10/28/2020 12:56:00 PM
169309,A058C3A8-45C0-4A37-9F14-ADE130D703AB,Leusden Supercharger,Philipsstraat Leusden 18,,Utrecht,UT,3833,Netherlands,52.144022,5.416976,,0,,,,,,,Tesla Supercharger;,,Public - Membership Required,12,12 Superchargers, 250 kW available 24/7,,Operational,10/14/2020 5:34:00 AM,10/14/2020 5:34:00 AM
169300,9DE7D0C9-BA77-42B1-8DA4-03B95CFC8A5B,Uden Supercharger,Rondweg 2,,Uden,,,Netherlands,51.671308,5.60267,,0,,,,,,,Tesla Supercharger;,,Public - Membership Required,12,12 Superchargers, 250 kW available 24/7,,Operational,10/14/2020 5:32:00 AM,10/14/2020 5:32:00 AM
167143,4F8CD1B0-6197-40BE-8AC5-5D99B88636D9,Boekhorstlaan 4,3847 LP,,Harderwijk,Gelderland,3847 LP,Netherlands,52.33570233192614,5.643056566499581,,0,,,info@tango.nl,opposite Burger King,,http://www.tango.nl/electric,CCS (Type 2);,,Public,2,,,Operational,8/27/2020 3:22:00 PM,8/27/2020 3:20:00 PM
163019,C885AE1E-3ADE-416C-B42E-3B3BB9AC3655,Achterweg 1, Onderdendam,Achterweg 1,,Onderdendam,Groningen,9959 PC,Netherlands,53.3353029,6.5879694,,0,,,,,,,Type 2 (Socket Only);,,Public - Membership Required,1,,,Operational,8/21/2020 7:02:00 AM,8/19/2020 9:23:00 AM
162620,5EEFFA56-457A-4999-B680-1D70F99BC984,9 Doornkampsteeg,9 Doornkampsteeg,,'s-Hertogenbosch,North Brabant,5236BB,Netherlands,51.733641519305564,5.328723169128807,,0,,,,,,,Type 2 (Socket Only);,,Public,2,,,Operational,8/13/2020 7:41:00 AM,8/12/2020 3:22:00 PM
162393,729A5A24-793A-4373-88BE-C3D92F9E8316,Wolkammersstraat,Wolkammersstraat,Sneek,Súdwest-Fryslân,Friesland,8601VB,Netherlands,53.034881824005396,5.622067875116045,,0,,,,,,,CCS (Type 2); CHAdeMO; Type 2 (Tethered Connector) ;,,Public - Pay At Location,2,,,Operational,8/8/2020 3:22:00 PM,8/7/2020 11:38:00 AM
162363,80E8E2BF-FB06-43AA-B59A-749122A3FDF4,Koningin Emmaplein 15,Koningin Emmaplein 15,,Rotterdam,,3015AB,Netherlands,51.910371730587144,4.474995764763207,,0,,,,,,,Type 2 (Socket Only);,,Public,1,,,Operational,8/7/2020 7:28:00 AM,8/7/2020 4:50:00 AM
162362,CBF1327D-F018-4B4F-AA50-179F1E7EDA12,Van Vollenhovenstraat 3,Van Vollenhovenstraat 3,,Rotterdam,South Holland,3016BH,Netherlands,51.910460915596104,4.477087146797885,,0,,,,,,,Type 2 (Socket Only);,,Public,1,,,Operational,8/7/2020 7:30:00 AM,8/7/2020 4:47:00 AM
162064,4AD2BE24-2AD6-4DFE-8298-C69202948ED6,Honthorststraat,Honthorststraat 46,,Amsterdam,Noord-Holland,1071DH,Netherlands,52.35769059255907,4.88575757377555,,0,,,,,,,Type 2 (Socket Only);,,Public,2,,,Operational,8/4/2020 6:17:00 PM,8/1/2020 10:57:00 AM
161875,4F9A83B2-B1D8-4734-82D3-FBD75D0FCAE8,Middelburg Supercharger,Paukenweg 3,,Middelburg,,4337 WH,Netherlands,51.480275,3.636485,,0,,,,,,,Tesla Supercharger;,,Public - Membership Required,8,Charging8 Superchargers, available 24/7, up to 250kW,,Operational,1/7/2021 6:55:00 AM,7/27/2020 2:47:00 PM
161853,6F621CC5-7E65-4250-9353-AFC8A3F6B09A,Shell Rotterdam,48 Stadionweg,,Rotterdam,South Holland,3078HV,Netherlands,51.89464168918698,4.530835616649711,,0,,,,,,,CCS (Type 2); CHAdeMO; Type 2 (Tethered Connector) ;,,Public - Pay At Location,2,,,Operational,7/27/2020 1:51:00 PM,7/27/2020 11:17:00 AM
161638,45CCCC21-9252-4ED7-9F79-68F16A0ABFFC,Akersloot Supercharger,Geesterweg 1a,,Akersloot,,1921 NV,Netherlands,52.547541,4.722741,,0,,,,,,,Tesla Supercharger;,,Public - Membership Required,8,Charging8 Superchargers, available 24/7, up to 250kW,,Operational,7/19/2020 5:32:00 AM,7/19/2020 5:32:00 AM
161618,D2A654E9-409C-433F-898C-1DAEDA854763,3 Waterschapstraat,3 Waterschapstraat,,Alkmaar,North Holland,1821AR,Netherlands,52.630213224208035,4.757845411660696,,0,,,,,,,Type 2 (Socket Only);,,Public - Membership Required,1,,,Operational,7/20/2020 6:43:00 PM,7/18/2020 11:14:00 AM
161434,5209AEEC-BD10-4F74-87A8-01F2649ACF58,Apeldoorn Oost Supercharger,Landgoedlaan 26,,Apeldoorn,,7325 AW,Netherlands,52.204703,6.016104,,0,,,,,,,Tesla Supercharger;,,Public - Membership Required,20,Charging12 Superchargers, available 24/7, up to 250kW,,Operational,12/20/2020 6:34:00 AM,7/12/2020 5:32:00 AM
161381,6F242282-A986-4CAA-8F4A-C8CE2FB88536,IJsvogelstraat,IJsvogelstraat 34,,Aalsmeer,,1431 VS,Netherlands,52.25563301923523,4.7599020794293665,,0,,,,,,,Type 2 (Socket Only); Type 2 (Socket Only);,,Public,4,Mostly blocked by fuel burners,,Partly Operational (Mixed),7/10/2020 5:07:00 PM,7/10/2020 7:26:00 AM
161270,3C375090-120E-42E1-8F1E-2ECD04200272,Rijswijk Supercharger,Laan Van Hoornwijck 29,,Rijswijk,,2289 DG,Netherlands,52.048276,4.349078,,0,,,,,,,Tesla Supercharger;,,Public - Membership Required,18,Charging12 superchargers, available 24/7, up to 250kW,,Operational,1/9/2021 6:44:00 AM,7/8/2020 5:28:00 AM
157470,4F46FC51-E895-4AD8-B2FB-0820F7705133,Zebrakever,Zebrakever,,Son en Breugel,North Brabant,5692VG,Netherlands,51.53141911337636,5.48762993293019,,0,,,,,,,Type 2 (Socket Only);,,Public,2,,,Operational,6/9/2020 6:22:00 AM,6/8/2020 5:34:00 PM
157452,0BAB41E1-9C4D-471D-9EB8-5D99B7108AEA,Rooijseweg,Rooijseweg,,Son en Breugel,North Brabant,5691ZV,Netherlands,51.5243917,5.4910909,,0,,,,,,http://www.sporthalson.nl/,Type 2 (Socket Only);,,Public,2,,,Operational,6/8/2020 10:39:00 AM,6/7/2020 5:09:00 PM
157325,17D4898A-C9BD-4389-B4CD-0865038C03AB,Koningsweg 26,Koningsweg 26,Vriezenveen,Twenterand,Overijssel,7672GD,Netherlands,52.41508160721338,6.621509916866216,,0,,,,,,,Type 2 (Socket Only);,,Public,2,,,Operational,5/29/2020 8:19:00 AM,5/28/2020 11:35:00 AM
156061,487AF704-B899-414A-BB43-0476A9C41BE2,Dadelgaarde 28,Dadelgaarde 28,,Zoetermeer,Zuid-Holland,2723 BK,Netherlands,52.059905953834345,4.515953744973444,,0,,,,,,,Type 2 (Socket Only);,,Public,2,,,Operational,5/5/2020 6:06:00 AM,5/4/2020 4:00:00 PM
156060,53BCC01F-ABEF-4465-AFE3-C18456ECAE1B,Gaardedreef 45,Gaardedreef 45,,Zoetermeer,Zuid-Holland,,Netherlands,52.05951900533063,4.512890914411173,,0,,,,,,,Type 2 (Socket Only);,,Public,2,,,Operational,5/6/2020 11:14:00 AM,5/4/2020 3:54:00 PM
155570,60CA7FBF-E10D-4200-B02D-C7791C069306,15 Maaslandstraat,15 Maaslandstraat,,Oisterwijk,North Brabant,5061XP,Netherlands,51.58392882792006,5.208350056368886,,0,,,,,,,Type 2 (Socket Only);,,Public,1,,,Operational,12/18/2020 7:55:00 PM,4/19/2020 11:05:00 AM
155148,99A4A901-B33D-4CAD-91C4-9FE70A7AB1FD,Onderdreef 1A,Onderdreef,,Buren,Gelderland,4116CC,Netherlands,51.91202628008102,5.331636984511761,,0,,,,,,,Type 2 (Socket Only);,,Public - Membership Required,6,,,Operational,3/29/2020 9:32:00 AM,3/28/2020 10:05:00 PM
154912,739ACF7C-22A8-4EC6-A8E4-D1259E04287E,Sowetostraat 2,Sowetostraat 2,,Delft,Zuid-Holland,2622LA,Netherlands,51.981313294692,4.338029529359346,,0,,,,,,,Type 2 (Socket Only);,,Public - Membership Required,2,,,Operational,3/22/2020 8:55:00 AM,3/21/2020 8:46:00 AM
154843,6F103C5F-1C03-45AD-A619-7F261F38375B,Enkplein 2,Enkplein,,Velp,Gelderland,6881MG,Netherlands,51.99904825178032,5.968128500752073,,0,,,,,,https://allego.eu,Type 2 (Socket Only);,,Public,1,Allego charger with Dual Mennekes,,Operational,3/21/2020 8:14:00 AM,3/20/2020 11:28:00 AM
149869,93F63687-6E2D-4A13-A862-3308B131708C,Schuddebeursstraat,Schuddebeursstraat 90,,Zoetermeer,Zuid-Holland,2729LX,Netherlands,52.061878017790576,4.539799144399467,,0,,,,,,,Type 2 (Socket Only);,,Public,2,,,Operational,3/7/2020 6:59:00 PM,3/7/2020 5:14:00 PM
149536,7C6F0262-C042-4992-A5FA-AB5837E2305D,Agri SnelTank,Hudsonweg 12,,Goes,Zeeland,4462HJ,Netherlands,51.483224893636816,3.894598537953584,,0,,,,,,,CHAdeMO; CCS (Type 2); Type 2 (Socket Only);,,Public - Membership Required,3,,,Operational,2/28/2020 8:08:00 AM,2/27/2020 5:03:00 PM
149457,BA20911F-4A23-45AE-B70D-109C8A555132,Argonautenstraat 19,Argonautenstraat 19,,Amsterdam,North Holland,1076KJ,Netherlands,52.34361035307606,4.860980473843256,,0,,,,,,,Type 2 (Socket Only);,,Public,2,,,Operational,2/26/2020 4:08:00 PM,2/26/2020 1:50:00 PM
148645,7228A2D6-B50D-436F-B30D-4D04FBB705B5,Oudorperdijkje,Oudorperdijkje,,Alkmaar,North Holland,1821AP,Netherlands,52.628374784191664,4.760675819920607,,0,,,,,,,Type 2 (Socket Only);,,Public - Membership Required,2,,,Operational,2/9/2020 6:04:00 PM,2/8/2020 11:34:00 AM
148471,AC2847C7-FB93-4E16-954D-F1B006CAA188,Fivelgolaan,Fivelgolaan,West,Groningen,Groningen,9727DZ,Netherlands,53.19893376495949,6.526537179599018,,0,,,,,,https://openbaarladen.nl/,Type 2 (Socket Only);,,Public,2,,,Operational,2/3/2020 4:45:00 PM,2/3/2020 8:31:00 AM
148324,5D30EB97-AF66-450A-9A59-6F40EC2D1705,Strawinskylaan,Strawinskylaan,Amsterdam,Amsterdam,North Holland,1077XW,Netherlands,52.340961671030556,4.875402153081495,,0,,,,,,,CCS (Type 2); CHAdeMO; Type 2 (Tethered Connector) ;,,Public,2,,,Operational,2/2/2020 5:17:00 PM,1/30/2020 11:55:00 AM
148197,DDC01C78-22CB-4A13-9EE0-F05F0E195A80,LastMileSolutions Charging Station,Wagenaarweg 17,,Den Haag,,2597LD,Netherlands,52.10143220497022,4.296741264116008,,0,,,,,,,Type 2 (Socket Only);,,Public - Membership Required,2,,,Operational,2/5/2020 9:37:00 AM,1/27/2020 11:15:00 AM
148110,05075471-2B06-46A5-9D06-4452112E42E6,'S-Hertogenbosch Supercharger,Burgemeester Burgerslaan 50,,Rosmalen,,5245 NH,Netherlands,51.720357,5.333276,,0,,,,,,,Tesla Supercharger;,,Public - Membership Required,16,Charging16 Superchargers, available 24/7, up to 150kW,,Operational,1/25/2020 6:41:00 AM,1/25/2020 6:41:00 AM
148061,57628981-9A4A-4351-90BD-92420A354041,Scheldestraat 2,Scheldestraat 2,,IJmuiden,Noord-Holland,1972 TM,Netherlands,52.45791653907861,4.610817588895998,,0,,,,,,,Type 2 (Socket Only);,,Public,2,,,Operational,1/25/2020 11:14:00 PM,1/24/2020 12:12:00 PM
146028,9272BCBA-A461-4FB9-B8CB-8DC18375B1A7,Assen Supercharger,1 Balkenweg,,Assen,,,Netherlands,52.9929,6.52447,,0,,,,,,,Tesla Supercharger;,,Public - Membership Required,14,14 Superchargers, available 24/7, up to 150kW,,Operational,12/30/2019 9:26:00 PM,12/30/2019 9:26:00 PM
145861,2894240E-0A33-475E-B152-D423EE88C6E1,Escher EV,Maurits Escherstraat 12,,Zelhem,Gelderland,7021GJ,Netherlands,52.00997492699278,6.360814324598891,,0,+31621818012,,john.bruil@gmail.com,Please contact main Telephone number before charging.,,,Type 2 (Tethered Connector) ;,,Privately Owned - Notice Required,1,,,Operational,1/9/2020 4:26:00 PM,12/24/2019 12:08:00 PM
135441,4FBE71D7-3F96-42B2-A706-C8DE26481736,Sterappelstraat,Sterappelstraat 46,,Den haag,,,Netherlands,52.06545893864143,4.255977912920798,,0,,,,,,,Type 2 (Socket Only);,,Public,2,,,Operational,12/21/2019 5:21:00 PM,12/21/2019 8:21:00 AM
135327,B9C8A325-458E-4E77-94E1-FBE1DC558E33,Doctor Ariënsstraat,Doctor Ariënsstraat 27,Panningen,Peel en Maas,Limburg,5981VE,Netherlands,51.324719151036305,5.978757452000309,,0,,,,,,,Type 2 (Socket Only);,,Public,2,,,Operational,12/17/2019 11:23:00 PM,12/17/2019 3:24:00 PM
134006,983B6E3D-2BA6-49E1-A2A5-3802F1F04132,Stationsplein,Stationsplein,Rijen,Gilze en Rijen,Noord-Brabant,5122CB,Netherlands,51.5840855763044,4.92548384979523,,0,,,,,,,Type 2 (Socket Only);,,Public,2,,,Operational,10/31/2019 9:31:00 PM,10/31/2019 2:34:00 PM
133796,E905CF0B-7264-433E-99DD-855D99D59E33,Ericssonstraat 2 Rijen,Ericssonstraat 2,,Rijen,,5121ML,Netherlands,51.57804198587354,4.926538867494173,,0,,,,,,,Type 2 (Socket Only);,,Public,12,,,Operational,10/26/2019 5:35:00 PM,10/26/2019 5:33:00 PM
133792,9973F97E-AE60-4FEC-B096-F787E6F6D7B0,Fastned Ravensewetering,Ravensewetering,,Nieuwegein,,3439ZZ,Netherlands,52.049847,5.122276,,0,,,,24/7,,http://www.fastned.nl,CHAdeMO; CCS (Type 2); CCS (Type 2);,,Public,4,,,Operational,10/26/2019 8:03:00 AM,10/26/2019 8:03:00 AM
133791,5030E13C-4F7F-429F-9378-9B07E31902AE,Fastned Jutphaas,Jutphaas A2,,Nieuwegein,,3437 PV,Netherlands,52.01765429656405,5.068244565118107,,0,,,,,,http://www.fastned.nl,CHAdeMO; CCS (Type 2); Type 2 (Socket Only); CCS (Type 2);,,Public,4,,,Operational,10/26/2019 7:59:00 AM,10/26/2019 7:59:00 AM
133777,95D0245C-FB94-4174-83A2-13F358B56D49,Duiven Supercharger,Impuls 2,,Duiven,,6921 RK,Netherlands,51.959482,6.021093,,0,,,,,,,Tesla Supercharger;,,Public - Membership Required,20,16 Superchargers, available 24/7, up to 120kW,,Operational,3/12/2020 12:07:00 PM,10/26/2019 5:55:00 AM
133766,5A909494-6DA6-44F3-822F-0B7C9839AE37,Naarden Supercharger,Ijsselmeerweg 3,,Naarden,,1411,Netherlands,52.308658,5.140926,,0,,,,,,,Tesla Supercharger;,,Public - Membership Required,32,12 Superchargers, available 24/7, up to 120kW,,Operational,1/30/2021 7:04:00 AM,10/26/2019 5:53:00 AM
133744,E61C32A4-EF41-4475-9C32-58725705D295,Marijkestraat,Marijkestraat,Rijen,Gilze en Rijen,Noord-Brabant,5121XB,Netherlands,51.588294822554,4.91985313736404,,0,,,,,,,Type 2 (Socket Only);,,Public,2,,,Operational,10/26/2019 5:21:00 PM,10/25/2019 9:20:00 AM
133632,E257B660-F1EF-4729-83DF-9852DE65474C,Heerlijkheid Mariënwaerdt,Oude Waag 21,,Beesd,,4153 RC,Netherlands,51.889319,5.219076,,0,+31 3456 87010,,,,,,Tesla (Model S/X);,,Public - Membership Required,1,1 Tesla Connector, up to 11kW.Available for customers. Please see front desk.,,Operational,10/22/2019 5:45:00 AM,10/22/2019 5:45:00 AM
133376,C205D7AD-EDC7-4118-A051-8510A257F3E2,Fastned De Hackelaar,De Hackelaar A1,,Muiden,,1398 PN,Netherlands,52.322068974177654,5.084432053024898,,0,,,,24/7,,http://fastned.nl/,CCS (Type 2); CCS (Type 2); CHAdeMO; Type 2 (Tethered Connector) ;,,Public,4,,,Operational,10/16/2019 5:55:00 PM,10/16/2019 5:55:00 PM
133144,2DE1C6EF-B954-4437-9F07-6874DB98F6B0,Winkelcentrum Stadsveld,Zweringweg 210,,Enschede,,,Netherlands,52.2104000019586,6.86353579627712,,0,,,,,,,Type 2 (Socket Only);,,Public,2,,,Operational,10/17/2019 11:11:00 AM,10/15/2019 2:15:00 PM
133004,23803FD5-228D-4066-9D14-B72C69271700,SpaSereen,Westbroekse Binnenweg 2a,,,Tienhoven,,3612 AH,Netherlands,52.1464286185232,5.08371539338782,,0,,,,,,,Type 2 (Socket Only);,,Private - For Staff, Visitors or Customers,4,,,Operational,10/11/2019 5:03:00 PM,10/11/2019 7:42:00 AM
132596,5CCB124C-EC22-4AA5-AD48-D3DA83E956B3,IONITY Sevenum,Kleefsedijk 27,,Sevenum,,5975 NV,Netherlands,51.3800057287701,5.98544993956125,,0,,,,Located on the parking lot next to the KFC. Open 24/7.,,,CCS (Type 2);,,Public,4,,,Operational,10/11/2019 7:14:00 AM,10/3/2019 7:08:00 AM
132397,6E3E4B97-F107-4E4D-A138-30C9BFA8670A,Fastned De Knoest,De Knoest A27,,Nieuwegein,Utrecht,3433NW,Netherlands,52.0142658986678,5.12237807136125,,0,,,,,,http://www.fastned.nl,CHAdeMO; CCS (Type 2); Type 2 (Socket Only); CCS (Type 2);,,Public,3,,,Operational,10/30/2019 9:07:00 PM,9/28/2019 12:54:00 PM
132396,F4F48B95-39D8-47BB-B173-B7A426446932,Fastned Varakker,Varakker A15,,Opheusden,,4043 AS,Netherlands,51.9239521236228,5.605242981731408,,0,,,,24/7,,,CCS (Type 2); CHAdeMO; Type 2 (Socket Only);,,Public - Pay At Location,4,,,Operational,9/28/2019 12:35:00 PM,9/28/2019 12:35:00 PM
132395,585F9531-F854-4CE7-9B71-63F30BE563CF,Fastned Jan Heijnsstraat (AH),Jan Heijnsstraat 10,,Tilburg,,5041GB,Netherlands,51.56232666590884,5.07525043679334,,0,,,,24/7,,,CCS (Type 2); CHAdeMO;,,Public - Pay At Location,2,,,Operational,9/28/2019 12:30:00 PM,9/28/2019 12:30:00 PM
132394,F2FB1628-0A40-496D-AE84-07C12602C178,Fastned Bloemheuvel,Bloemheuvel A12,,Woudenberg,,3931PD,Netherlands,52.049899909363546,5.461559592664003,,0,,,,24/7,,http://fastned.nl/,CCS (Type 2); CCS (Type 2); CHAdeMO; Type 2 (Tethered Connector) ;,,Public,4,,,Operational,9/28/2019 12:26:00 PM,9/28/2019 12:26:00 PM
132393,A66F33B5-3353-4578-940D-36DEFAA92E9B,Fastned De Vonken,De Vonken A7,,Terwispel,,8407EC,Netherlands,53.032415688134506,6.021034570977008,,0,,,,24/7,,,CCS (Type 2); CHAdeMO; Type 2 (Socket Only);,,Public - Pay At Location,4,,,Operational,9/28/2019 12:17:00 PM,9/28/2019 12:17:00 PM
132391,FFA2CFFC-C340-439A-AF78-2E265C5ADDEC,Fastned Den Ruygen Hoek-Oost,Den Ruygen Hoek-Oost A4,,Rijsenhout,,2132MA,Netherlands,52.25826430677844,4.685957607546129,,0,,,,,,http://fastned.nl/,CCS (Type 2); CCS (Type 2); CHAdeMO; Type 2 (Tethered Connector) ;,,Public,8,,,Operational,9/28/2019 11:25:00 AM,9/28/2019 11:25:00 AM
132390,8EECB4EE-CC46-45E7-81B6-3EEF9F90FC44,Fastned Aalscholver,Aalscholver A6,,Lelystad,,8218PW,Netherlands,52.43605394334023,5.425004709194127,,0,,,,24/7,,http://fastned.nl/,CCS (Type 2); CCS (Type 2); CHAdeMO; Type 2 (Tethered Connector) ;,,Public,4,,,Operational,9/28/2019 10:56:00 AM,9/28/2019 10:56:00 AM
132389,50445279-AB30-4D8E-8A52-B794F4C33ECB,Fastned Lepelaar,Lepelaar A6,,Lelystad,,8218PZ,Netherlands,52.432869,5.422989,,0,,,,24/7,,http://fastned.nl/,CCS (Type 2); CCS (Type 2); CHAdeMO; Type 2 (Tethered Connector) ;,,Public,4,,,Operational,9/28/2019 10:55:00 AM,9/28/2019 10:55:00 AM
132387,699E27D4-276E-48BD-BCE5-6EC5BB29ACB6,Fastned Honswijck,Honswijck A1,,Muiden,,1398PZ,Netherlands,52.3198822293468,5.077603571033933,,0,,,,,,http://fastned.nl/,CCS (Type 2); CCS (Type 2); CHAdeMO; Type 2 (Tethered Connector) ;,,Public,8,,,Operational,9/28/2019 10:32:00 AM,9/28/2019 10:32:00 AM
132386,9D4BF2E8-9FE1-454B-AB08-B12B784FD5FD,Fastned Portland,Portland A15,,Rhoon,,3161GP,Netherlands,51.86262339782925,4.4598305447498205,,0,,,,24/7,,http://fastned.nl/,CCS (Type 2); CCS (Type 2); CHAdeMO; Type 2 (Tethered Connector) ;,,Public,4,,,Operational,9/28/2019 10:22:00 AM,9/28/2019 10:22:00 AM
132385,2E7D7E3C-D4FF-4AE9-A64D-0704B8089727,Fastned Wellerzand,Wellerzand A6,,Bant,,8313 PV,Netherlands,52.784365011052245,5.759275406583583,,0,,,,24/7,,http://fastned.nl/,CCS (Type 2); CCS (Type 2); CHAdeMO; Type 2 (Tethered Connector) ;,,Public,4,,,Operational,9/28/2019 10:21:00 AM,9/28/2019 10:21:00 AM
132384,1DA4E0F3-D666-4E1F-AE4A-F59B27026F96,Fastned Lemsterhop,Lemsterhop A6,,Rutten,,8313RE,Netherlands,52.818464629420276,5.7423368906721635,,0,,,,,,http://fastned.nl/,CCS (Type 2); CCS (Type 2); CHAdeMO; Type 2 (Tethered Connector) ;,,Public,4,,,Operational,9/28/2019 10:20:00 AM,9/28/2019 10:20:00 AM
132383,8B716683-32A6-4B44-BE4B-8B847A20A365,GelreDome,Batavierenweg 29,,Arnhem,,6841HN,Netherlands,51.96467,5.892364,,0,,,,24/7,,http://fastned.nl/,CCS (Type 2); CCS (Type 2); CHAdeMO; Type 2 (Tethered Connector) ;,,Public,4,,,Operational,9/28/2019 10:19:00 AM,9/28/2019 10:19:00 AM
132382,967E4CA3-5784-4C23-B9BD-4CE93C2E4894,Fastned Mastpolder,Mastpolder A58,,Rucphen,,4715 TA,Netherlands,51.5476316753116,4.53054657308508,,0,,,,,,http://fastned.nl/,CCS (Type 2); CCS (Type 2); CHAdeMO; Type 2 (Tethered Connector) ;,,Public,4,,,Operational,9/28/2019 2:22:00 PM,9/28/2019 10:11:00 AM
132381,D7962D01-FB55-4E95-9214-8F6FDFD18CF1,Fastned Hoezaar,Hoezaar A58,,Rucphen,,4735 TX,Netherlands,51.54878251803402,4.529013372128929,,0,,,,24/7,,http://fastned.nl/,CCS (Type 2); CCS (Type 2); CHAdeMO; Type 2 (Tethered Connector) ;,,Public,4,,,Operational,9/28/2019 10:09:00 AM,9/28/2019 10:09:00 AM
132380,F3C04C2E-4C0F-42ED-9BFE-27E24F1FB34F,Fastned Prinses Máximaplein,Prinses Máximaplein,,Den Haag,,2496 XH,Netherlands,52.0552053241585,4.39111172879348,,0,,,,,,http://fastned.nl/,CCS (Type 2); CCS (Type 2); CHAdeMO; Type 2 (Tethered Connector) ;,,Public,4,,,Operational,9/28/2019 2:22:00 PM,9/28/2019 10:05:00 AM
132379,B18FE267-60E1-41B1-8DA8-582D2EFA09E1,Fastned Sandelingen-Oost,Sandelingen-Oost A16,,Hendrik-Ido-Ambacht,,3342 LE,Netherlands,51.83475015088521,4.620992950949812,,0,,,,24/7,,http://fastned.nl/,CCS (Type 2); CCS (Type 2); CHAdeMO; Type 2 (Tethered Connector) ;,,Public,4,,,Operational,9/28/2019 10:04:00 AM,9/28/2019 10:04:00 AM
132378,17F2627F-A569-48F5-9B67-76C4551AD55A,Fastned Vrijenban,Vrijenban A13,,Delft,,2629 HA,Netherlands,51.983412,4.392855,,0,,,,24/7,,http://fastned.nl/,CCS (Type 2); CCS (Type 2); CHAdeMO; Type 2 (Tethered Connector) ;,,Public,4,,,Operational,9/28/2019 10:01:00 AM,9/28/2019 10:01:00 AM
132377,ED17BB4D-E425-4128-A678-9E11C0BCB7ED,Fastned Hazeldonk-Oost,Hazeldonk-Oost A16,,Breda,,4836 LB,Netherlands,51.497864494311045,4.743250363658831,,0,,,,,,http://fastned.nl/,CCS (Type 2); CCS (Type 2); CHAdeMO; Type 2 (Tethered Connector) ;,,Public,4,,,Operational,9/28/2019 9:59:00 AM,9/28/2019 9:59:00 AM
132376,C38D5B07-F843-47D7-9011-F3F424684BC0,Fastned Hazeldonk-West,Hazeldonk-West A16,,Breda,,4836 LZ,Netherlands,51.50006170367081,4.7410144819448305,,0,,,,,,http://fastned.nl/,CCS (Type 2); CCS (Type 2); CHAdeMO; Type 2 (Tethered Connector) ;,,Public,4,,,Operational,9/28/2019 9:58:00 AM,9/28/2019 9:58:00 AM
132375,A04E5611-3DA7-4E7B-938D-1D31B791964E,Fastned Molenkamp,Molenkamp A15,,Gellicum,,4156 JJ,Netherlands,51.847476442050805,5.190784931576445,,0,,,,,,http://fastned.nl/,CCS (Type 2); CCS (Type 2); CHAdeMO; Type 2 (Tethered Connector) ;,,Public,4,,,Operational,9/28/2019 9:56:00 AM,9/28/2019 9:56:00 AM
132374,F65BBFA7-52B8-4204-B932-F563F3CBC27D,Fastned Eigenblok,Eigenblok A15,,Gellicum,,4156 JZ,Netherlands,51.849068597836464,5.191414900292784,,0,,,,24/7,,http://fastned.nl/,CCS (Type 2); CCS (Type 2); CHAdeMO; Type 2 (Tethered Connector) ;,,Public,4,,,Operational,9/28/2019 9:54:00 AM,9/28/2019 9:54:00 AM
132373,AD36581B-1FD9-40D6-A1EC-224DBA75FF2C,Fastned Overbroek,Overbroek A15,,Opheusden,,4051CZ,Netherlands,51.92159655110726,5.603319459536806,,0,,,,24/7,,,CCS (Type 2); CHAdeMO; Type 2 (Socket Only);,,Public - Pay At Location,4,,,Operational,9/28/2019 9:36:00 AM,9/28/2019 9:36:00 AM
132372,945D0439-190B-47E8-B7F2-FA62F1F98303,Fastned Streepland,Streepland A16,,Zevenbergschen Hoek,,4765TK,Netherlands,51.69068858287895,4.657570000495866,,0,,,,24/7,,,CCS (Type 2); CHAdeMO; Type 2 (Socket Only);,,Public - Pay At Location,4,,,Operational,9/28/2019 9:34:00 AM,9/28/2019 9:34:00 AM
132371,B731E4D8-3F94-403A-A107-02C65A5222A0,Fastned Tussenhoek,Tussenhoek N57,,Vierpolders,,3237 LS,Netherlands,51.870171183539355,4.182257291199221,,0,,,,,,,CCS (Type 2); CHAdeMO; Type 2 (Socket Only);,,Public - Pay At Location,4,,,Operational,12/8/2019 4:58:00 PM,9/28/2019 9:32:00 AM
132370,66375120-862A-46A1-BA36-B2BD8C024A77,Fastned Coosenhoek,Coosenhoek N57,,Vierpolders,,3237 NA,Netherlands,51.870605301019566,4.180432122666616,,0,,,,24/7,,,CCS (Type 2); CHAdeMO; Type 2 (Socket Only);,,Public - Pay At Location,4,,,Operational,9/28/2019 9:31:00 AM,9/28/2019 9:31:00 AM
132369,3D92C80C-84EC-469C-8087-DF3318109845,Fastned Meedenertol,Meedenertol A7,,Scheemda,,9679TN,Netherlands,53.18090611485101,6.933631737604628,,0,,,,,,,CCS (Type 2); CHAdeMO; Type 2 (Socket Only);,,Public - Pay At Location,4,,,Operational,9/28/2019 8:44:00 AM,9/28/2019 8:44:00 AM
132368,D28694F8-036B-428F-880E-1F3D16A589BF,Fastned Roode Til,Roode Til A7,,Scheemda,,9679TN,Netherlands,53.182019030339205,6.931017642004235,,0,,,,24/7,,,CCS (Type 2); CHAdeMO; Type 2 (Socket Only);,,Public - Pay At Location,4,,,Operational,9/28/2019 8:42:00 AM,9/28/2019 8:42:00 AM
132367,66B13037-3402-4BEF-9E6A-090612E05944,Fastned De Walden,De Walden A7,,Terwispel,,8407EB,Netherlands,53.02930206042643,6.020059502517029,,0,,,,24/7,,,CCS (Type 2); CHAdeMO; Type 2 (Socket Only);,,Public - Pay At Location,4,,,Operational,9/28/2019 8:41:00 AM,9/28/2019 8:41:00 AM
132366,294F6291-9330-44F7-9262-09FA165682D8,Fastned Beatrixkwartier,J.P. Coenstraat 2,,Den Haag,,2595WP,Netherlands,52.07904494794499,4.333990347882718,,0,,,,24/7,,,CCS (Type 2); CHAdeMO; Type 2 (Socket Only);,,Public - Pay At Location,4,,,Operational,9/28/2019 8:39:00 AM,9/28/2019 8:39:00 AM
132365,EB707FF0-E426-4323-80C9-EF599AF3B36C,Fastned Middelsloot,Middelsloot A7,,Middenbeemster,,1461MZ,Netherlands,52.545986435998685,4.957308495860389,,0,,,,24/7,,,CCS (Type 2); CHAdeMO; Type 2 (Socket Only);,,Public - Pay At Location,4,,,Operational,9/28/2019 8:28:00 AM,9/28/2019 8:28:00 AM
131963,7993AA04-5AA5-4EBE-B807-6F27D5A659B6,Hotel Old Dutch Bergen Op Zoom,Stationsstraat 31,,Bergen op Zoom,,4611CB,Netherlands,51.4950874,4.2952009,,0,+31 164 271888,,,,,,Tesla (Model S/X);,,Public - Membership Required,1,1 Tesla Connector, up to 11kW.Available for customers. Please see front desk.,,Operational,9/16/2019 5:35:00 AM,9/16/2019 5:35:00 AM
131289,AB0FA537-90DF-4F2F-A26C-4349735EB5C5,Herberg de Klomp,Vilsterseweg 10,,Vilsteren,,7734PD,Netherlands,52.5110807,6.3540541,,0,+31 52 94 59 000,,,,,,Tesla (Model S/X);,,Public - Membership Required,1,1 Tesla Connector, up to 22kW.Available for customers. Please see front desk.,,Operational,9/2/2019 5:32:00 AM,9/2/2019 5:32:00 AM
